APRIZESAT 2             
1 28366U 04025A   26182.68783721  .00000234  00000+0  85642-4 0  9994
2 28366  98.1027 347.8482 0105011 205.6719 153.9235 14.38042193153729
SAUDICOMSAT 1           
1 28369U 04025D   26182.93409180  .00000400  00000+0  10274-3 0  9992
2 28369  98.5770 193.4634 0031681 340.5592  19.4394 14.55485422166275
SAUDICOMSAT 2           
1 28370U 04025E   26182.96151080  .00000236  00000+0  72374-4 0  9997
2 28370  98.6639 195.6256 0054747 213.9808 145.7875 14.49988919162249
APRIZESAT 1             
1 28372U 04025G   26182.83708593  .00000301  00000+0  85957-4 0  9996
2 28372  98.6303 193.9613 0045700 110.2137 250.3980 14.51785533164039
NANOSAT-1               
1 28493U 04049B   26182.90600035  .00001131  00000+0  15615-3 0  9991
2 28493  98.2295 319.9284 0002904 234.2380 125.8562 14.80188918157624
SAUDICOMSAT 7           
1 31119U 07012C   26182.92266438  .00000591  00000+0  11463-3 0  9996
2 31119  98.3786 157.3565 0056319 149.1368 211.3166 14.66124804 24592
SAUDICOMSAT 6           
1 31121U 07012E   26182.73068626  .00000510  00000+0  10726-3 0  9999
2 31121  98.4106 150.5184 0070412 281.8173  77.5136 14.62574121 22316
SAUDICOMSAT 5           
1 31124U 07012H   26182.87549792  .00000803  00000+0  14632-3 0  9990
2 31124  98.3497 158.0522 0048723  79.7097 280.9595 14.68176832 25752
SAUDICOMSAT 3           
1 31125U 07012J   26182.87856928  .00000971  00000+0  16617-3 0  9994
2 31125  98.3151 158.6026 0039289   7.6291 352.5504 14.70731524 26988
SAUDICOMSAT 4           
1 31127U 07012L   26182.91232762  .00000450  00000+0  92508-4 0  9991
2 31127  98.3992 155.7837 0062649 211.4209 148.3245 14.64525526 23448
APRIZESAT 4             
1 35684U 09041D   26182.14789819  .00000751  00000+0  96134-4 0  9995
2 35684  98.1410 257.7465 0041887 276.5074  83.1371 14.83897710913437
APRIZESAT 3             
1 35686U 09041F   26182.94495552  .00001008  00000+0  91794-4 0  9996
2 35686  98.2079 336.8773 0062003  19.3739 340.9818 14.96280631918589
S-NET D                 
1 43186U 18014G   26182.77798401  .00005368  00000+0  27643-3 0  9994
2 43186  97.5352  87.4779 0007328 340.7390  19.3565 15.16808618460972
S-NET B                 
1 43187U 18014H   26182.78972221  .00005571  00000+0  28696-3 0  9995
2 43187  97.5356  87.4766 0007758 334.8339  25.2515 15.16779760460973
S-NET A                 
1 43188U 18014J   26182.77678118  .00005453  00000+0  28068-3 0  9995
2 43188  97.5366  87.6754 0007697 335.7806  24.3064 15.16817199460973
S-NET C                 
1 43189U 18014K   26182.79367311  .00005654  00000+0  29121-3 0  9992
2 43189  97.5385  87.7690 0008831 325.7924  34.2739 15.16771644459528
SALSAT                  
1 46495U 20068K   26182.92716775  .00008869  00000+0  30791-3 0  9990
2 46495  97.8846 186.8910 0008027 245.2054 114.8351 15.30008157317615
OOV-CUBE (TUBSAT-30)    
1 60240U 24128F   26182.69381773  .00002059  00000+0  16577-3 0  9996
2 60240  61.9932 174.9862 0042803 136.9261 223.5193 15.02826243108294
LPNTSAT-001 (IOD-1)     
1 68408U 26065A   26182.63918262  .00002801  00000+0  13827-3 0  9995
2 68408  97.3999  62.8427 0015215 318.8569  41.1518 15.18610529 14459
